LANDSAT 9               
1 49260U 21088A   24038.42465047  .00000711  00000+0  16788-3 0  9990
2 49260  98.2031 110.1733 0001006 105.0091 255.1218 14.57113849125651
